[{"OBJECT_NAME":"STARLINK-5796","OBJECT_ID":"2023-037C","EPOCH":"2026-03-09T21:17:37.878144","MEAN_MOTION":14.98333112,"ECCENTRICITY":0.00025469,"INCLINATION":69.9996,"RA_OF_ASC_NODE":304.0841,"ARG_OF_PERICENTER":265.0751,"MEAN_ANOMALY":95.0118,"EPHEMERIS_TYPE":0,"CLASSIFICATION_TYPE":"U","NORAD_CAT_ID":55916,"ELEMENT_SET_NO":999,"REV_AT_EPOCH":16351,"BSTAR":-1.7216849e-5,"MEAN_MOTION_DOT":-2.98e-6,"MEAN_MOTION_DDOT":0},{"OBJECT_NAME":"PSLV DEB","OBJECT_ID":"2001-049CM","EPOCH":"2026-03-09T17:27:22.548384","MEAN_MOTION":14.90404456,"ECCENTRICITY":0.00458218,"INCLINATION":98.0898,"RA_OF_ASC_NODE":119.3906,"ARG_OF_PERICENTER":199.2732,"MEAN_ANOMALY":281.2941,"EPHEMERIS_TYPE":0,"CLASSIFICATION_TYPE":"U","NORAD_CAT_ID":27141,"ELEMENT_SET_NO":999,"REV_AT_EPOCH":30717,"BSTAR":0.00021410628,"MEAN_MOTION_DOT":2.065e-5,"MEAN_MOTION_DDOT":0}]
